start=new Date('2021-11-09T00:00:00.000Z').valueOf();
sats=[{"OBJECT_TYPE":"PAYLOAD","DECAY_DATE":null,"FILE":"3209620","ECCENTRICITY":"0.00014370","MEAN_MOTION_DOT":"0.00008019","SITE":"AFETR","BSTAR":"0.00056862000000","CLASSIFICATION_TYPE":"U","MEAN_ANOMALY":"289.9560","LAUNCH_DATE":"2020-08-18","TLE_LINE1":"1 46169U 20057BE  21312.71948200  .00008019  00000-0  56862-3 0  9998","ELEMENT_SET_NO":"999","SEMIMAJOR_AXIS":"6927.808","REF_FRAME":"TEME","ARG_OF_PERICENTER":"70.1583","MEAN_MOTION":"15.05597878","REV_AT_EPOCH":"6760","OBJECT_ID":"2020-057BE","CENTER_NAME":"EARTH","MEAN_MOTION_DDOT":"0.0000000000000","MEAN_ELEMENT_THEORY":"SGP4","GP_ID":"189303252","RCS_SIZE":"LARGE","RA_OF_ASC_NODE":"218.3525","PERIOD":"95.643","OBJECT_NAME":"STARLINK-1628","TLE_LINE2":"2 46169  52.9982 218.3525 0001437  70.1583 289.9560 15.05597878 67601","APOAPSIS":"550.669","EPHEMERIS_TYPE":"0","INCLINATION":"52.9982","PERIAPSIS":"548.678","COUNTRY_CODE":"US","EPOCH":"2021-11-08T17:16:03.244800","NORAD_CAT_ID":"46169","TIME_SYSTEM":"UTC"},{"REF_FRAME":"TEME","SEMIMAJOR_AXIS":"6925.357","OBJECT_ID":"2020-057BG","MEAN_ELEMENT_THEORY":"SGP4","GP_ID":"189273842","CENTER_NAME":"EARTH","MEAN_MOTION_DDOT":"0.0000000000000","REV_AT_EPOCH":"6851","MEAN_MOTION":"15.06397377","ARG_OF_PERICENTER":"66.6823","OBJECT_NAME":"STARLINK-1633","PERIOD":"95.592","TLE_LINE2":"2 46171  53.0524 199.8011 0001573  66.6823 293.4332 15.06397377 68510","RCS_SIZE":"LARGE","RA_OF_ASC_NODE":"199.8011","PERIAPSIS":"546.132","COUNTRY_CODE":"US","EPOCH":"2021-11-08T09:33:50.472576","NORAD_CAT_ID":"46171","TIME_SYSTEM":"UTC","EPHEMERIS_TYPE":"0","INCLINATION":"53.0524","APOAPSIS":"548.311","DECAY_DATE":null,"OBJECT_TYPE":"PAYLOAD","BSTAR":"0.00102550000000","SITE":"AFETR","ECCENTRICITY":"0.00015730","FILE":"3209266","MEAN_MOTION_DOT":"0.00015025","MEAN_ANOMALY":"293.4332","CLASSIFICATION_TYPE":"U","ELEMENT_SET_NO":"999","LAUNCH_DATE":"2020-08-18","TLE_LINE1":"1 46171U 20057BG  21312.39850084  .00015025  00000-0  10255-2 0  9997"},{"EPOCH":"2021-11-08T22:39:20.487168","NORAD_CAT_ID":"46172","TIME_SYSTEM":"UTC","COUNTRY_CODE":"US","PERIAPSIS":"546.039","EPHEMERIS_TYPE":"0","INCLINATION":"53.0535","APOAPSIS":"548.379","TLE_LINE2":"2 46172  53.0535 197.3601 0001690  68.2427 291.8742 15.06401492 69195","OBJECT_NAME":"STARLINK-1635","PERIOD":"95.592","RA_OF_ASC_NODE":"197.3601","RCS_SIZE":"LARGE","GP_ID":"189302250","MEAN_ELEMENT_THEORY":"SGP4","MEAN_MOTION_DDOT":"0.0000000000000","CENTER_NAME":"EARTH","OBJECT_ID":"2020-057BH","MEAN_MOTION":"15.06401492","ARG_OF_PERICENTER":"68.2427","REV_AT_EPOCH":"6919","REF_FRAME":"TEME","SEMIMAJOR_AXIS":"6925.344","ELEMENT_SET_NO":"999","TLE_LINE1":"1 46172U 20057BH  21312.94398712  .00001323  00000-0  10772-3 0  9995","LAUNCH_DATE":"2020-08-18","MEAN_ANOMALY":"291.8742","CLASSIFICATION_TYPE":"U","BSTAR":"0.00010772000000","SITE":"AFETR","MEAN_MOTION_DOT":"0.00001323","FILE":"3209620","ECCENTRICITY":"0.00016900","DECAY_DATE":null,"OBJECT_TYPE":"PAYLOAD"},{"ELEMENT_SET_NO":"999","LAUNCH_DATE":"2020-08-18","TLE_LINE1":"1 46173U 20057BJ  21312.45928892 -.00002202  00000-0 -12901-3 0  9995","MEAN_ANOMALY":"283.3851","CLASSIFICATION_TYPE":"U","BSTAR":"-0.00012901000000","SITE":"AFETR","ECCENTRICITY":"0.00015680","FILE":"3209238","MEAN_MOTION_DOT":"-0.00002202","DECAY_DATE":null,"OBJECT_TYPE":"PAYLOAD","PERIAPSIS":"546.164","COUNTRY_CODE":"US","EPOCH":"2021-11-08T11:01:22.562688","TIME_SYSTEM":"UTC","NORAD_CAT_ID":"46173","APOAPSIS":"548.336","INCLINATION":"53.0539","EPHEMERIS_TYPE":"0","PERIOD":"95.593","OBJECT_NAME":"STARLINK-1640","TLE_LINE2":"2 46173  53.0539 219.5317 0001568  76.7313 283.3851 15.06388122 67585","RCS_SIZE":"LARGE","RA_OF_ASC_NODE":"219.5317","OBJECT_ID":"2020-057BJ","MEAN_MOTION_DDOT":"0.0000000000000","CENTER_NAME":"EARTH","MEAN_ELEMENT_THEORY":"SGP4","GP_ID":"189271013","ARG_OF_PERICENTER":"76.7313","MEAN_MOTION":"15.06388122","REV_AT_EPOCH":"6758","REF_FRAME":"TEME","SEMIMAJOR_AXIS":"6925.385"},{"MEAN_ANOMALY":"296.5782","CLASSIFICATION_TYPE":"U","ELEMENT_SET_NO":"999","TLE_LINE1":"1 46174U 20057BK  21312.46666164  .00001345  00000-0  10920-3 0  9992","LAUNCH_DATE":"2020-08-18","DECAY_DATE":null,"OBJECT_TYPE":"PAYLOAD","BSTAR":"0.00010920000000","SITE":"AFETR","MEAN_MOTION_DOT":"0.00001345","ECCENTRICITY":"0.00016820","FILE":"3209270","TLE_LINE2":"2 46174  53.0537 219.4906 0001682  63.5379 296.5782 15.06398553 68242","OBJECT_NAME":"STARLINK-1641","PERIOD":"95.592","RA_OF_ASC_NODE":"219.4906","RCS_SIZE":"LARGE","EPOCH":"2021-11-08T11:11:59.565696","TIME_SYSTEM":"UTC","NORAD_CAT_ID":"46174","PERIAPSIS":"546.053","COUNTRY_CODE":"US","INCLINATION":"53.0537","EPHEMERIS_TYPE":"0","APOAPSIS":"548.383","REF_FRAME":"TEME","SEMIMAJOR_AXIS":"6925.353","GP_ID":"189273893","MEAN_ELEMENT_THEORY":"SGP4","CENTER_NAME":"EARTH","MEAN_MOTION_DDOT":"0.0000000000000","OBJECT_ID":"2020-057BK","REV_AT_EPOCH":"6824","MEAN_MOTION":"15.06398553","ARG_OF_PERICENTER":"63.5379"},{"MEAN_ANOMALY":"285.7818","CLASSIFICATION_TYPE":"U","ELEMENT_SET_NO":"999","LAUNCH_DATE":"2020-09-03","TLE_LINE1":"1 46325U 20062A   21312.47821296  .00009996  00000-0  68910-3 0  9998","DECAY_DATE":null,"OBJECT_TYPE":"PAYLOAD","SITE":"AFETR","BSTAR":"0.00068910000000","FILE":"3209238","ECCENTRICITY":"0.00014170","MEAN_MOTION_DOT":"0.00009996","PERIOD":"95.592","OBJECT_NAME":"STARLINK-1734","TLE_LINE2":"2 46325  53.0537 234.4490 0001417  74.3327 285.7818 15.06394536 67071","RCS_SIZE":"LARGE","RA_OF_ASC_NODE":"234.4490","COUNTRY_CODE":"US","PERIAPSIS":"546.249","EPOCH":"2021-11-08T11:28:37.599744","TIME_SYSTEM":"UTC","NORAD_CAT_ID":"46325","APOAPSIS":"548.212","INCLINATION":"53.0537","EPHEMERIS_TYPE":"0","REF_FRAME":"TEME","SEMIMAJOR_AXIS":"6925.365","OBJECT_ID":"2020-062A","MEAN_MOTION_DDOT":"0.0000000000000","CENTER_NAME":"EARTH","MEAN_ELEMENT_THEORY":"SGP4","GP_ID":"189271777","MEAN_MOTION":"15.06394536","ARG_OF_PERICENTER":"74.3327","REV_AT_EPOCH":"6707"},{"RA_OF_ASC_NODE":"278.6599","RCS_SIZE":"LARGE","TLE_LINE2":"2 46326  53.0543 278.6599 0001669  65.6691 294.4472 15.06395453 65862","PERIOD":"95.592","OBJECT_NAME":"STARLINK-1654","APOAPSIS":"548.383","EPHEMERIS_TYPE":"0","INCLINATION":"53.0543","TIME_SYSTEM":"UTC","EPOCH":"2021-11-08T15:38:41.555040","NORAD_CAT_ID":"46326","PERIAPSIS":"546.072","COUNTRY_CODE":"US","SEMIMAJOR_AXIS":"6925.362","REF_FRAME":"TEME","MEAN_MOTION":"15.06395453","REV_AT_EPOCH":"6586","ARG_OF_PERICENTER":"65.6691","CENTER_NAME":"EARTH","MEAN_MOTION_DDOT":"0.0000000000000","MEAN_ELEMENT_THEORY":"SGP4","GP_ID":"189303014","OBJECT_ID":"2020-062B","CLASSIFICATION_TYPE":"U","MEAN_ANOMALY":"294.4472","TLE_LINE1":"1 46326U 20062B   21312.65186985  .00004565  00000-0  32517-3 0  9999","LAUNCH_DATE":"2020-09-03","ELEMENT_SET_NO":"999","OBJECT_TYPE":"PAYLOAD","DECAY_DATE":null,"MEAN_MOTION_DOT":"0.00004565","FILE":"3209620","ECCENTRICITY":"0.00016690","BSTAR":"0.00032517000000","SITE":"AFETR"},{"REF_FRAME":"TEME","SEMIMAJOR_AXIS":"6925.386","OBJECT_ID":"2020-062C","CENTER_NAME":"EARTH","MEAN_MOTION_DDOT":"0.0000000000000","MEAN_ELEMENT_THEORY":"SGP4","GP_ID":"189303764","REV_AT_EPOCH":"6585","MEAN_MOTION":"15.06387828","ARG_OF_PERICENTER":"72.1232","PERIOD":"95.593","OBJECT_NAME":"STARLINK-1673","TLE_LINE2":"2 46327  53.0538 278.7640 0001400  72.1232 287.9909 15.06387828 65850","RCS_SIZE":"LARGE","RA_OF_ASC_NODE":"278.7640","COUNTRY_CODE":"US","PERIAPSIS":"546.281","EPOCH":"2021-11-08T15:08:13.491744","TIME_SYSTEM":"UTC","NORAD_CAT_ID":"46327","APOAPSIS":"548.220","EPHEMERIS_TYPE":"0","INCLINATION":"53.0538","DECAY_DATE":null,"OBJECT_TYPE":"PAYLOAD","BSTAR":"0.00048147000000","SITE":"AFETR","FILE":"3209620","ECCENTRICITY":"0.00014000","MEAN_MOTION_DOT":"0.00006895","MEAN_ANOMALY":"287.9909","CLASSIFICATION_TYPE":"U","ELEMENT_SET_NO":"999","LAUNCH_DATE":"2020-09-03","TLE_LINE1":"1 46327U 20062C   21312.63071171  .00006895  00000-0  48147-3 0  9992"},{"EPOCH":"2021-11-08T06:41:20.220000","TIME_SYSTEM":"UTC","NORAD_CAT_ID":"46328","COUNTRY_CODE":"US","PERIAPSIS":"546.189","APOAPSIS":"548.309","EPHEMERIS_TYPE":"0","INCLINATION":"53.0544","TLE_LINE2":"2 46328  53.0544 260.3382 0001531  79.4394 280.6767 15.06388408 66085","PERIOD":"95.593","OBJECT_NAME":"STARLINK-1686","RA_OF_ASC_NODE":"260.3382","RCS_SIZE":"LARGE","MEAN_MOTION_DDOT":"0.0000000000000","CENTER_NAME":"EARTH","MEAN_ELEMENT_THEORY":"SGP4","GP_ID":"189271527","OBJECT_ID":"2020-062D","REV_AT_EPOCH":"6608","ARG_OF_PERICENTER":"79.4394","MEAN_MOTION":"15.06388408","REF_FRAME":"TEME","SEMIMAJOR_AXIS":"6925.384","ELEMENT_SET_NO":"999","TLE_LINE1":"1 46328U 20062D   21312.27870625  .00008051  00000-0  55894-3 0  9997","LAUNCH_DATE":"2020-09-03","MEAN_ANOMALY":"280.6767","CLASSIFICATION_TYPE":"U","BSTAR":"0.00055894000000","SITE":"AFETR","MEAN_MOTION_DOT":"0.00008051","FILE":"3209238","ECCENTRICITY":"0.00015310","DECAY_DATE":null,"OBJECT_TYPE":"PAYLOAD"},{"MEAN_MOTION_DOT":"0.00003857","FILE":"3209620","ECCENTRICITY":"0.00014380","BSTAR":"0.00027773000000","SITE":"AFETR","OBJECT_TYPE":"PAYLOAD","DECAY_DATE":null,"TLE_LINE1":"1 46329U 20062E   21312.90898840  .00003857  00000-0  27773-3 0  9991","LAUNCH_DATE":"2020-09-03","ELEMENT_SET_NO":"999","CLASSIFICATION_TYPE":"U","MEAN_ANOMALY":"292.5936","MEAN_MOTION":"15.06394279","REV_AT_EPOCH":"6617","ARG_OF_PERICENTER":"67.5205","GP_ID":"189302762","MEAN_ELEMENT_THEORY":"SGP4","MEAN_MOTION_DDOT":"0.0000000000000","CENTER_NAME":"EARTH","OBJECT_ID":"2020-062E","SEMIMAJOR_AXIS":"6925.366","REF_FRAME":"TEME","INCLINATION":"53.0537","EPHEMERIS_TYPE":"0","APOAPSIS":"548.227","NORAD_CAT_ID":"46329","TIME_SYSTEM":"UTC","EPOCH":"2021-11-08T21:48:56.597760","PERIAPSIS":"546.235","COUNTRY_CODE":"US","RA_OF_ASC_NODE":"257.5027","RCS_SIZE":"LARGE","TLE_LINE2":"2 46329  53.0537 257.5027 0001438  67.5205 292.5936 15.06394279 66170","OBJECT_NAME":"STARLINK-1695","PERIOD":"95.593"}];
